CCSDS_OMM_VERS = 2.0
CREATION_DATE  = 
ORIGINATOR     = 

OBJECT_NAME    = CZ-3B R/B
OBJECT_ID      = 2025-312B
CENTER_NAME    = EARTH
REF_FRAME      = TEME
TIME_SYSTEM    = UTC
MEAN_ELEMENT_THEORY = SGP/SGP4

EPOCH          = 2026-01-16T13:41:29.031360
MEAN_MOTION    = 2.44451560
ECCENTRICITY   = .72033853
INCLINATION    = 28.4200
RA_OF_ASC_NODE = 326.0137
ARG_OF_PERICENTER = 192.4389
MEAN_ANOMALY   = 129.2534

EPHEMERIS_TYPE = 0
CLASSIFICATION_TYPE = U
NORAD_CAT_ID   = 67247
ELEMENT_SET_NO = 999
REV_AT_EPOCH   = 50
BSTAR          = .45412605E-3
MEAN_MOTION_DOT = .172949E-2
MEAN_MOTION_DDOT = .109696E-6

CCSDS_OMM_VERS = 2.0
CREATION_DATE  = 
ORIGINATOR     = 

OBJECT_NAME    = 2025-313A
OBJECT_ID      = 2025-313A
CENTER_NAME    = EARTH
REF_FRAME      = TEME
TIME_SYSTEM    = UTC
MEAN_ELEMENT_THEORY = SGP/SGP4

EPOCH          = 2026-01-16T13:45:06.769728
MEAN_MOTION    = 14.66797831
ECCENTRICITY   = .02805752
INCLINATION    = 97.5629
RA_OF_ASC_NODE = 92.6342
ARG_OF_PERICENTER = 103.7225
MEAN_ANOMALY   = 259.5380

EPHEMERIS_TYPE = 0
CLASSIFICATION_TYPE = U
NORAD_CAT_ID   = 67248
ELEMENT_SET_NO = 999
REV_AT_EPOCH   = 279
BSTAR          = .10982098E-3
MEAN_MOTION_DOT = .1053E-4
MEAN_MOTION_DDOT = 0

CCSDS_OMM_VERS = 2.0
CREATION_DATE  = 
ORIGINATOR     = 

OBJECT_NAME    = 2025-313B
OBJECT_ID      = 2025-313B
CENTER_NAME    = EARTH
REF_FRAME      = TEME
TIME_SYSTEM    = UTC
MEAN_ELEMENT_THEORY = SGP/SGP4

EPOCH          = 2026-01-16T11:48:26.360928
MEAN_MOTION    = 14.73202569
ECCENTRICITY   = .02977859
INCLINATION    = 97.5321
RA_OF_ASC_NODE = 92.6534
ARG_OF_PERICENTER = 108.1453
MEAN_ANOMALY   = 255.2423

EPHEMERIS_TYPE = 0
CLASSIFICATION_TYPE = U
NORAD_CAT_ID   = 67249
ELEMENT_SET_NO = 999
REV_AT_EPOCH   = 279
BSTAR          = .22584695E-3
MEAN_MOTION_DOT = .2922E-4
MEAN_MOTION_DDOT = 0

CCSDS_OMM_VERS = 2.0
CREATION_DATE  = 
ORIGINATOR     = 

OBJECT_NAME    = 2025-313C
OBJECT_ID      = 2025-313C
CENTER_NAME    = EARTH
REF_FRAME      = TEME
TIME_SYSTEM    = UTC
MEAN_ELEMENT_THEORY = SGP/SGP4

EPOCH          = 2026-01-16T14:51:04.237920
MEAN_MOTION    = 14.84708260
ECCENTRICITY   = .016299
INCLINATION    = 97.6364
RA_OF_ASC_NODE = 93.3493
ARG_OF_PERICENTER = 117.7211
MEAN_ANOMALY   = 244.0645

EPHEMERIS_TYPE = 0
CLASSIFICATION_TYPE = U
NORAD_CAT_ID   = 67250
ELEMENT_SET_NO = 999
REV_AT_EPOCH   = 283
BSTAR          = .11937532E-2
MEAN_MOTION_DOT = .12791E-3
MEAN_MOTION_DDOT = 0

CCSDS_OMM_VERS = 2.0
CREATION_DATE  = 
ORIGINATOR     = 

OBJECT_NAME    = 2025-313D
OBJECT_ID      = 2025-313D
CENTER_NAME    = EARTH
REF_FRAME      = TEME
TIME_SYSTEM    = UTC
MEAN_ELEMENT_THEORY = SGP/SGP4

EPOCH          = 2026-01-16T11:55:17.161824
MEAN_MOTION    = 14.88748645
ECCENTRICITY   = .01523925
INCLINATION    = 97.5874
RA_OF_ASC_NODE = 93.2205
ARG_OF_PERICENTER = 110.6942
MEAN_ANOMALY   = 251.0687

EPHEMERIS_TYPE = 0
CLASSIFICATION_TYPE = U
NORAD_CAT_ID   = 67251
ELEMENT_SET_NO = 999
REV_AT_EPOCH   = 282
BSTAR          = .205007E-3
MEAN_MOTION_DOT = .232E-4
MEAN_MOTION_DDOT = 0

CCSDS_OMM_VERS = 2.0
CREATION_DATE  = 
ORIGINATOR     = 

OBJECT_NAME    = ZORKIY-2M-VPE
OBJECT_ID      = 2025-313E
CENTER_NAME    = EARTH
REF_FRAME      = TEME
TIME_SYSTEM    = UTC
MEAN_ELEMENT_THEORY = SGP/SGP4

EPOCH          = 2026-01-16T11:40:05.704896
MEAN_MOTION    = 15.21660786
ECCENTRICITY   = .00112383
INCLINATION    = 97.4116
RA_OF_ASC_NODE = 93.6629
ARG_OF_PERICENTER = 152.0941
MEAN_ANOMALY   = 208.0900

EPHEMERIS_TYPE = 0
CLASSIFICATION_TYPE = U
NORAD_CAT_ID   = 67252
ELEMENT_SET_NO = 999
REV_AT_EPOCH   = 288
BSTAR          = .31126402E-3
MEAN_MOTION_DOT = .698E-4
MEAN_MOTION_DDOT = 0

CCSDS_OMM_VERS = 2.0
CREATION_DATE  = 
ORIGINATOR     = 

OBJECT_NAME    = AIST-2T 1
OBJECT_ID      = 2025-313F
CENTER_NAME    = EARTH
REF_FRAME      = TEME
TIME_SYSTEM    = UTC
MEAN_ELEMENT_THEORY = SGP/SGP4

EPOCH          = 2026-01-16T11:35:31.034976
MEAN_MOTION    = 15.65219930
ECCENTRICITY   = .00105507
INCLINATION    = 97.1035
RA_OF_ASC_NODE = 93.8248
ARG_OF_PERICENTER = 169.9829
MEAN_ANOMALY   = 190.1644

EPHEMERIS_TYPE = 0
CLASSIFICATION_TYPE = U
NORAD_CAT_ID   = 67253
ELEMENT_SET_NO = 999
REV_AT_EPOCH   = 294
BSTAR          = .46446839E-3
MEAN_MOTION_DOT = .46126E-3
MEAN_MOTION_DDOT = 0

CCSDS_OMM_VERS = 2.0
CREATION_DATE  = 
ORIGINATOR     = 

OBJECT_NAME    = AIST-2T 2
OBJECT_ID      = 2025-313G
CENTER_NAME    = EARTH
REF_FRAME      = TEME
TIME_SYSTEM    = UTC
MEAN_ELEMENT_THEORY = SGP/SGP4

EPOCH          = 2026-01-16T11:37:12.016704
MEAN_MOTION    = 15.64841239
ECCENTRICITY   = .00100968
INCLINATION    = 97.1033
RA_OF_ASC_NODE = 93.8231
ARG_OF_PERICENTER = 172.1691
MEAN_ANOMALY   = 187.9729

EPHEMERIS_TYPE = 0
CLASSIFICATION_TYPE = U
NORAD_CAT_ID   = 67254
ELEMENT_SET_NO = 999
REV_AT_EPOCH   = 293
BSTAR          = .38978136E-3
MEAN_MOTION_DOT = .38069E-3
MEAN_MOTION_DDOT = 0

CCSDS_OMM_VERS = 2.0
CREATION_DATE  = 
ORIGINATOR     = 

OBJECT_NAME    = 2025-313H
OBJECT_ID      = 2025-313H
CENTER_NAME    = EARTH
REF_FRAME      = TEME
TIME_SYSTEM    = UTC
MEAN_ELEMENT_THEORY = SGP/SGP4

EPOCH          = 2026-01-16T12:40:45.646176
MEAN_MOTION    = 15.02173134
ECCENTRICITY   = .00912946
INCLINATION    = 97.3096
RA_OF_ASC_NODE = 92.9250
ARG_OF_PERICENTER = 130.9027
MEAN_ANOMALY   = 230.0152

EPHEMERIS_TYPE = 0
CLASSIFICATION_TYPE = U
NORAD_CAT_ID   = 67255
ELEMENT_SET_NO = 999
REV_AT_EPOCH   = 285
BSTAR          = .11970608E-3
MEAN_MOTION_DOT = .1663E-4
MEAN_MOTION_DDOT = 0

CCSDS_OMM_VERS = 2.0
CREATION_DATE  = 
ORIGINATOR     = 

OBJECT_NAME    = SITRO-AIS-57
OBJECT_ID      = 2025-313J
CENTER_NAME    = EARTH
REF_FRAME      = TEME
TIME_SYSTEM    = UTC
MEAN_ELEMENT_THEORY = SGP/SGP4

EPOCH          = 2026-01-16T12:11:53.213856
MEAN_MOTION    = 15.19895774
ECCENTRICITY   = .00170457
INCLINATION    = 97.4107
RA_OF_ASC_NODE = 93.6287
ARG_OF_PERICENTER = 170.3090
MEAN_ANOMALY   = 189.8477

EPHEMERIS_TYPE = 0
CLASSIFICATION_TYPE = U
NORAD_CAT_ID   = 67256
ELEMENT_SET_NO = 999
REV_AT_EPOCH   = 288
BSTAR          = .34334783E-3
MEAN_MOTION_DOT = .7334E-4
MEAN_MOTION_DDOT = 0

CCSDS_OMM_VERS = 2.0
CREATION_DATE  = 
ORIGINATOR     = 

OBJECT_NAME    = SITRO-AIS-59
OBJECT_ID      = 2025-313K
CENTER_NAME    = EARTH
REF_FRAME      = TEME
TIME_SYSTEM    = UTC
MEAN_ELEMENT_THEORY = SGP/SGP4

EPOCH          = 2026-01-16T12:11:15.455328
MEAN_MOTION    = 15.19920982
ECCENTRICITY   = .00167713
INCLINATION    = 97.4114
RA_OF_ASC_NODE = 93.6307
ARG_OF_PERICENTER = 172.3438
MEAN_ANOMALY   = 187.8057

EPHEMERIS_TYPE = 0
CLASSIFICATION_TYPE = U
NORAD_CAT_ID   = 67257
ELEMENT_SET_NO = 999
REV_AT_EPOCH   = 288
BSTAR          = .33726188E-3
MEAN_MOTION_DOT = .7207E-4
MEAN_MOTION_DDOT = 0

CCSDS_OMM_VERS = 2.0
CREATION_DATE  = 
ORIGINATOR     = 

OBJECT_NAME    = SITRO-AIS-58
OBJECT_ID      = 2025-313L
CENTER_NAME    = EARTH
REF_FRAME      = TEME
TIME_SYSTEM    = UTC
MEAN_ELEMENT_THEORY = SGP/SGP4

EPOCH          = 2026-01-16T12:10:41.597760
MEAN_MOTION    = 15.19963431
ECCENTRICITY   = .00167188
INCLINATION    = 97.4110
RA_OF_ASC_NODE = 93.6296
ARG_OF_PERICENTER = 171.6377
MEAN_ANOMALY   = 188.5140

EPHEMERIS_TYPE = 0
CLASSIFICATION_TYPE = U
NORAD_CAT_ID   = 67258
ELEMENT_SET_NO = 999
REV_AT_EPOCH   = 288
BSTAR          = .33539295E-3
MEAN_MOTION_DOT = .7175E-4
MEAN_MOTION_DDOT = 0

