CZ-3B R/B               
1 67247U 25312B   26016.57047490  .00172949  10970-6  45413-3 0  9995
2 67247  28.4200 326.0137 7203385 192.4389 129.2534  2.44451560   502
2025-313A               
1 67248U 25313A   26016.57299502  .00001053  00000+0  10982-3 0  9996
2 67248  97.5629  92.6342 0280575 103.7225 259.5380 14.66797831  2792
2025-313B               
1 67249U 25313B   26016.49197177  .00002922  00000+0  22585-3 0  9991
2 67249  97.5321  92.6534 0297785 108.1453 255.2423 14.73202569  2796
2025-313C               
1 67250U 25313C   26016.61879905  .00012791  00000+0  11938-2 0  9997
2 67250  97.6364  93.3493 0162990 117.7211 244.0645 14.84708260  2833
2025-313D               
1 67251U 25313D   26016.49672641  .00002320  00000+0  20501-3 0  9996
2 67251  97.5874  93.2205 0152392 110.6942 251.0687 14.88748645  2825
ZORKIY-2M-VPE           
1 67252U 25313E   26016.48617714  .00006980  00000+0  31126-3 0  9997
2 67252  97.4116  93.6629 0011238 152.0941 208.0900 15.21660786  2883
AIST-2T 1               
1 67253U 25313F   26016.48299809  .00046126  00000+0  46447-3 0  9997
2 67253  97.1035  93.8248 0010550 169.9829 190.1644 15.65219930  2940
AIST-2T 2               
1 67254U 25313G   26016.48416686  .00038069  00000+0  38978-3 0  9999
2 67254  97.1033  93.8231 0010096 172.1691 187.9729 15.64841239  2938
2025-313H               
1 67255U 25313H   26016.52830609  .00001663  00000+0  11971-3 0  9994
2 67255  97.3096  92.9250 0091294 130.9027 230.0152 15.02173134  2850
SITRO-AIS-57            
1 67256U 25313J   26016.50825479  .00007334  00000+0  34335-3 0  9992
2 67256  97.4107  93.6287 0017045 170.3090 189.8477 15.19895774  2886
SITRO-AIS-59            
1 67257U 25313K   26016.50781777  .00007207  00000+0  33726-3 0  9997
2 67257  97.4114  93.6307 0016771 172.3438 187.8057 15.19920982  2883
SITRO-AIS-58            
1 67258U 25313L   26016.50742590  .00007175  00000+0  33539-3 0  9994
2 67258  97.4110  93.6296 0016718 171.6377 188.5140 15.19963431  2889
